ONEWEB-0656             
1 55817U 23029X   25159.04130332  .00000113  00000+0  24525-3 0  9995
2 55817  87.9263 348.9343 0001777  73.3062 286.8266 13.20770811112440
ONEWEB-0657             
1 55818U 23029Y   25159.14455131 -.00000038  00000+0 -12783-3 0  9995
2 55818  87.9230  19.3490 0002526  75.7848 284.3565 13.19726842110253
ONEWEB-0658             
1 55819U 23029Z   25158.91236617 -.00000003  00000+0 -38653-4 0  9993
2 55819  87.9231  19.3287 0002012  98.8124 261.3237 13.19726642110239
ONEWEB-0660             
1 55820U 23029AA  25159.08384961  .00002663  00000+0  71440-2 0  9991
2 55820  87.9042   4.1092 0001652  96.2320 263.8998 13.14515090110965
ONEWEB-0661             
1 55821U 23029AB  25159.11873978  .00000010  00000+0 -69296-5 0  9991
2 55821  87.9042   4.1728 0001458  94.1123 266.0174 13.14501770110932
ONEWEB-0662             
1 55822U 23029AC  25159.07752048  .00000088  00000+0  20206-3 0  9991
2 55822  87.9041   4.1879 0001583  98.7811 261.3498 13.14504258110999
ONEWEB-0663             
1 55823U 23029AD  25159.09858980  .00000221  00000+0  51105-3 0  9997
2 55823  87.9263 348.9782 0001700 104.2369 255.8953 13.20838775112447
ONEWEB-0664             
1 55824U 23029AE  25159.02867348  .00000151  00000+0  33901-3 0  9995
2 55824  87.9264 349.0133 0001397  83.6473 276.4820 13.20773320112445
